{"fetched_at":"2026-03-29T16:36:15Z","count":15609,"tles":[{"name":"STARLINK-36810","line1":"1 67898U 26035V   26087.79348121  .00209462  00000+0  13673-2 0  9996","line2":"2 67898  97.2868  21.1731 0001369  93.1380 267.0042 15.75253460  6856","category":"Starlink"}]}